start=new Date('2022-01-06T00:00:00.000Z').valueOf();
sats=[{"CENTER_NAME":"EARTH","REF_FRAME":"TEME","BSTAR":"-0.00000246430000","ARG_OF_PERICENTER":"96.8849","MEAN_MOTION":"15.06387134","SITE":"AFETR","APOAPSIS":"548.256","RCS_SIZE":"LARGE","PERIAPSIS":"546.250","RA_OF_ASC_NODE":"123.0906","INCLINATION":"53.0555","MEAN_ELEMENT_THEORY":"SGP4","REV_AT_EPOCH":"3400","MEAN_MOTION_DOT":"-0.00000318","OBJECT_NAME":"STARLINK-2727","OBJECT_ID":"2021-044Q","LAUNCH_DATE":"2021-05-26","TLE_LINE1":"1 48652U 21044Q   22005.69483823 -.00000318  00000-0 -24643-5 0  9996","GP_ID":"193286962","SEMIMAJOR_AXIS":"6925.388","MEAN_MOTION_DDOT":"0.0000000000000","DECAY_DATE":null,"TLE_LINE2":"2 48652  53.0555 123.0906 0001449  96.8849 263.2305 15.06387134 34009","EPOCH":"2022-01-05T16:40:34.023072","OBJECT_TYPE":"PAYLOAD","ECCENTRICITY":"0.00014490","FILE":"3265018","ELEMENT_SET_NO":"999","TIME_SYSTEM":"UTC","MEAN_ANOMALY":"263.2305","NORAD_CAT_ID":"48652","PERIOD":"95.593","COUNTRY_CODE":"US","EPHEMERIS_TYPE":"0","CLASSIFICATION_TYPE":"U"},{"CENTER_NAME":"EARTH","REF_FRAME":"TEME","BSTAR":"0.00003686000000","MEAN_MOTION":"15.06388716","ARG_OF_PERICENTER":"98.6631","APOAPSIS":"548.482","SITE":"AFETR","RCS_SIZE":"LARGE","INCLINATION":"53.0552","PERIAPSIS":"546.014","RA_OF_ASC_NODE":"123.1067","MEAN_ELEMENT_THEORY":"SGP4","MEAN_MOTION_DOT":"0.00000267","REV_AT_EPOCH":"3400","OBJECT_ID":"2021-044R","OBJECT_NAME":"STARLINK-2720","LAUNCH_DATE":"2021-05-26","TLE_LINE1":"1 48653U 21044R   22005.69115033  .00000267  00000-0  36860-4 0  9996","GP_ID":"193286498","SEMIMAJOR_AXIS":"6925.383","MEAN_MOTION_DDOT":"0.0000000000000","TLE_LINE2":"2 48653  53.0552 123.1067 0001782  98.6631 261.4560 15.06388716 34005","DECAY_DATE":null,"OBJECT_TYPE":"PAYLOAD","EPOCH":"2022-01-05T16:35:15.388512","ECCENTRICITY":"0.00017820","FILE":"3265018","ELEMENT_SET_NO":"999","TIME_SYSTEM":"UTC","NORAD_CAT_ID":"48653","MEAN_ANOMALY":"261.4560","COUNTRY_CODE":"US","PERIOD":"95.593","EPHEMERIS_TYPE":"0","CLASSIFICATION_TYPE":"U"},{"REF_FRAME":"TEME","CENTER_NAME":"EARTH","BSTAR":"-0.00018589000000","APOAPSIS":"548.369","SITE":"AFETR","ARG_OF_PERICENTER":"98.5422","MEAN_MOTION":"15.06396798","RA_OF_ASC_NODE":"122.5381","PERIAPSIS":"546.078","INCLINATION":"53.0544","RCS_SIZE":"LARGE","MEAN_ELEMENT_THEORY":"SGP4","REV_AT_EPOCH":"3402","MEAN_MOTION_DOT":"-0.00003049","OBJECT_NAME":"STARLINK-2651","OBJECT_ID":"2021-044S","LAUNCH_DATE":"2021-05-26","TLE_LINE1":"1 48654U 21044S   22005.82015842 -.00003049  00000-0 -18589-3 0  9999","DECAY_DATE":null,"TLE_LINE2":"2 48654  53.0544 122.5381 0001654  98.5422 261.5755 15.06396798 34022","SEMIMAJOR_AXIS":"6925.358","GP_ID":"193286748","MEAN_MOTION_DDOT":"0.0000000000000","ECCENTRICITY":"0.00016540","FILE":"3265018","EPOCH":"2022-01-05T19:41:01.687488","OBJECT_TYPE":"PAYLOAD","ELEMENT_SET_NO":"999","MEAN_ANOMALY":"261.5755","NORAD_CAT_ID":"48654","TIME_SYSTEM":"UTC","EPHEMERIS_TYPE":"0","PERIOD":"95.592","COUNTRY_CODE":"US","CLASSIFICATION_TYPE":"U"},{"TLE_LINE1":"1 48655U 21044T   22005.75011845 -.00000368  00000-0 -58127-5 0  9996","GP_ID":"193287996","SEMIMAJOR_AXIS":"6925.346","MEAN_MOTION_DDOT":"0.0000000000000","TLE_LINE2":"2 48655  53.0557 122.8498 0001619  94.1519 265.9655 15.06400827 34014","DECAY_DATE":null,"OBJECT_TYPE":"PAYLOAD","EPOCH":"2022-01-05T18:00:10.234080","FILE":"3265018","ECCENTRICITY":"0.00016190","ELEMENT_SET_NO":"999","TIME_SYSTEM":"UTC","NORAD_CAT_ID":"48655","MEAN_ANOMALY":"265.9655","COUNTRY_CODE":"US","PERIOD":"95.592","EPHEMERIS_TYPE":"0","CLASSIFICATION_TYPE":"U","CENTER_NAME":"EARTH","REF_FRAME":"TEME","BSTAR":"-0.00000581270000","MEAN_MOTION":"15.06400827","ARG_OF_PERICENTER":"94.1519","APOAPSIS":"548.332","SITE":"AFETR","RCS_SIZE":"LARGE","INCLINATION":"53.0557","PERIAPSIS":"546.090","RA_OF_ASC_NODE":"122.8498","MEAN_ELEMENT_THEORY":"SGP4","MEAN_MOTION_DOT":"-0.00000368","REV_AT_EPOCH":"3401","OBJECT_ID":"2021-044T","OBJECT_NAME":"STARLINK-2657","LAUNCH_DATE":"2021-05-26"},{"MEAN_ANOMALY":"254.2083","NORAD_CAT_ID":"48656","TIME_SYSTEM":"UTC","CLASSIFICATION_TYPE":"U","EPHEMERIS_TYPE":"0","PERIOD":"95.593","COUNTRY_CODE":"US","DECAY_DATE":null,"TLE_LINE2":"2 48656  53.0554 122.5617 0001399 105.9060 254.2083 15.06389117 34024","MEAN_MOTION_DDOT":"0.0000000000000","GP_ID":"193286463","SEMIMAJOR_AXIS":"6925.382","TLE_LINE1":"1 48656U 21044U   22005.81278909 -.00001307  00000-0 -68854-4 0  9991","ELEMENT_SET_NO":"999","ECCENTRICITY":"0.00013990","FILE":"3265018","OBJECT_TYPE":"PAYLOAD","EPOCH":"2022-01-05T19:30:24.977376","REV_AT_EPOCH":"3402","MEAN_MOTION_DOT":"-0.00001307","MEAN_ELEMENT_THEORY":"SGP4","LAUNCH_DATE":"2021-05-26","OBJECT_NAME":"STARLINK-2701","OBJECT_ID":"2021-044U","BSTAR":"-0.00006885400000","REF_FRAME":"TEME","CENTER_NAME":"EARTH","PERIAPSIS":"546.278","RA_OF_ASC_NODE":"122.5617","INCLINATION":"53.0554","RCS_SIZE":"LARGE","SITE":"AFETR","APOAPSIS":"548.216","ARG_OF_PERICENTER":"105.9060","MEAN_MOTION":"15.06389117"},{"RA_OF_ASC_NODE":"122.8787","PERIAPSIS":"546.106","INCLINATION":"53.0560","RCS_SIZE":"LARGE","SITE":"AFETR","APOAPSIS":"548.318","ARG_OF_PERICENTER":"99.4120","MEAN_MOTION":"15.06400586","BSTAR":"-0.00002035300000","REF_FRAME":"TEME","CENTER_NAME":"EARTH","LAUNCH_DATE":"2021-05-26","OBJECT_NAME":"STARLINK-2734","OBJECT_ID":"2021-044V","REV_AT_EPOCH":"3401","MEAN_MOTION_DOT":"-0.00000585","MEAN_ELEMENT_THEORY":"SGP4","ELEMENT_SET_NO":"999","FILE":"3265018","ECCENTRICITY":"0.00015970","OBJECT_TYPE":"PAYLOAD","EPOCH":"2022-01-05T17:49:33.450528","DECAY_DATE":null,"TLE_LINE2":"2 48657  53.0560 122.8787 0001597  99.4120 260.7050 15.06400586 34016","SEMIMAJOR_AXIS":"6925.347","GP_ID":"193286998","MEAN_MOTION_DDOT":"0.0000000000000","TLE_LINE1":"1 48657U 21044V   22005.74274827 -.00000585  00000-0 -20353-4 0  9998","CLASSIFICATION_TYPE":"U","EPHEMERIS_TYPE":"0","PERIOD":"95.592","COUNTRY_CODE":"US","MEAN_ANOMALY":"260.7050","NORAD_CAT_ID":"48657","TIME_SYSTEM":"UTC"},{"CLASSIFICATION_TYPE":"U","EPHEMERIS_TYPE":"0","COUNTRY_CODE":"US","PERIOD":"95.593","NORAD_CAT_ID":"48658","MEAN_ANOMALY":"263.5860","TIME_SYSTEM":"UTC","ELEMENT_SET_NO":"999","FILE":"3265018","ECCENTRICITY":"0.00015040","EPOCH":"2022-01-05T17:44:15.058752","OBJECT_TYPE":"PAYLOAD","TLE_LINE2":"2 48658  53.0561 122.9125 0001504  96.5300 263.5860 15.06392817 34018","DECAY_DATE":null,"GP_ID":"193287248","SEMIMAJOR_AXIS":"6925.371","MEAN_MOTION_DDOT":"0.0000000000000","TLE_LINE1":"1 48658U 21044W   22005.73906318 -.00000362  00000-0 -54209-5 0  9996","LAUNCH_DATE":"2021-05-26","OBJECT_ID":"2021-044W","OBJECT_NAME":"STARLINK-2647","MEAN_MOTION_DOT":"-0.00000362","REV_AT_EPOCH":"3401","MEAN_ELEMENT_THEORY":"SGP4","INCLINATION":"53.0561","PERIAPSIS":"546.194","RA_OF_ASC_NODE":"122.9125","RCS_SIZE":"LARGE","APOAPSIS":"548.277","SITE":"AFETR","MEAN_MOTION":"15.06392817","ARG_OF_PERICENTER":"96.5300","BSTAR":"-0.00000542090000","REF_FRAME":"TEME","CENTER_NAME":"EARTH"},{"EPHEMERIS_TYPE":"0","COUNTRY_CODE":"US","PERIOD":"95.593","CLASSIFICATION_TYPE":"U","NORAD_CAT_ID":"48659","MEAN_ANOMALY":"261.7208","TIME_SYSTEM":"UTC","FILE":"3264673","ECCENTRICITY":"0.00015190","EPOCH":"2022-01-05T14:27:51.881184","OBJECT_TYPE":"PAYLOAD","ELEMENT_SET_NO":"999","TLE_LINE1":"1 48659U 21044X   22005.60268381 -.00000270  00000-0  79178-6 0  9994","TLE_LINE2":"2 48659  53.0559 123.5157 0001519  98.3953 261.7208 15.06390638 33999","DECAY_DATE":null,"SEMIMAJOR_AXIS":"6925.377","GP_ID":"193255121","MEAN_MOTION_DDOT":"0.0000000000000","OBJECT_ID":"2021-044X","OBJECT_NAME":"STARLINK-2717","LAUNCH_DATE":"2021-05-26","MEAN_ELEMENT_THEORY":"SGP4","MEAN_MOTION_DOT":"-0.00000270","REV_AT_EPOCH":"3399","SITE":"AFETR","APOAPSIS":"548.294","MEAN_MOTION":"15.06390638","ARG_OF_PERICENTER":"98.3953","INCLINATION":"53.0559","RA_OF_ASC_NODE":"123.5157","PERIAPSIS":"546.190","RCS_SIZE":"LARGE","REF_FRAME":"TEME","CENTER_NAME":"EARTH","BSTAR":"0.00000079178000"},{"REV_AT_EPOCH":"3401","MEAN_MOTION_DOT":"-0.00000598","MEAN_ELEMENT_THEORY":"SGP4","LAUNCH_DATE":"2021-05-26","OBJECT_NAME":"STARLINK-2688","OBJECT_ID":"2021-044Y","BSTAR":"-0.00002127900000","REF_FRAME":"TEME","CENTER_NAME":"EARTH","RA_OF_ASC_NODE":"122.9303","PERIAPSIS":"546.156","INCLINATION":"53.0561","RCS_SIZE":"LARGE","APOAPSIS":"548.357","SITE":"AFETR","ARG_OF_PERICENTER":"104.2899","MEAN_MOTION":"15.06386014","MEAN_ANOMALY":"255.8266","NORAD_CAT_ID":"48660","TIME_SYSTEM":"UTC","CLASSIFICATION_TYPE":"U","EPHEMERIS_TYPE":"0","PERIOD":"95.593","COUNTRY_CODE":"US","DECAY_DATE":null,"TLE_LINE2":"2 48660  53.0561 122.9303 0001589 104.2899 255.8266 15.06386014 34018","GP_ID":"193286963","SEMIMAJOR_AXIS":"6925.391","MEAN_MOTION_DDOT":"0.0000000000000","TLE_LINE1":"1 48660U 21044Y   22005.73169650 -.00000598  00000-0 -21279-4 0  9990","ELEMENT_SET_NO":"999","FILE":"3265018","ECCENTRICITY":"0.00015890","EPOCH":"2022-01-05T17:33:38.577600","OBJECT_TYPE":"PAYLOAD"},{"PERIOD":"95.594","COUNTRY_CODE":"US","EPHEMERIS_TYPE":"0","CLASSIFICATION_TYPE":"U","TIME_SYSTEM":"UTC","MEAN_ANOMALY":"265.2336","NORAD_CAT_ID":"48661","EPOCH":"2022-01-05T15:59:25.650240","OBJECT_TYPE":"PAYLOAD","ECCENTRICITY":"0.00017170","FILE":"3265018","ELEMENT_SET_NO":"999","TLE_LINE1":"1 48661U 21044Z   22005.66626910  .00007063  00000-0  49305-3 0  9991","MEAN_MOTION_DDOT":"0.0000000000000","GP_ID":"193286499","SEMIMAJOR_AXIS":"6925.451","DECAY_DATE":null,"TLE_LINE2":"2 48661  53.0572 113.2143 0001717  94.8849 265.2336 15.06366727 34144","OBJECT_NAME":"STARLINK-2708","OBJECT_ID":"2021-044Z","LAUNCH_DATE":"2021-05-26","MEAN_ELEMENT_THEORY":"SGP4","REV_AT_EPOCH":"3414","MEAN_MOTION_DOT":"0.00007063","ARG_OF_PERICENTER":"94.8849","MEAN_MOTION":"15.06366727","APOAPSIS":"548.505","SITE":"AFETR","RCS_SIZE":"LARGE","RA_OF_ASC_NODE":"113.2143","PERIAPSIS":"546.126","INCLINATION":"53.0572","CENTER_NAME":"EARTH","REF_FRAME":"TEME","BSTAR":"0.00049305000000"}];
